[{"OBJECT_NAME":"STARLINK-5531","OBJECT_ID":"2023-013BE","EPOCH":"2026-03-09T22:00:01.999584","MEAN_MOTION":15.06159419,"ECCENTRICITY":9.438e-5,"INCLINATION":43.0003,"RA_OF_ASC_NODE":285.7881,"ARG_OF_PERICENTER":293.9763,"MEAN_ANOMALY":188.4027,"EPHEMERIS_TYPE":0,"CLASSIFICATION_TYPE":"U","NORAD_CAT_ID":55383,"ELEMENT_SET_NO":999,"REV_AT_EPOCH":573,"BSTAR":0.0029014075,"MEAN_MOTION_DOT":0.00043241,"MEAN_MOTION_DDOT":0},{"OBJECT_NAME":"CZ-4B DEB","OBJECT_ID":"2008-053G","EPOCH":"2026-03-08T12:59:24.951264","MEAN_MOTION":14.89391484,"ECCENTRICITY":0.01030319,"INCLINATION":97.6151,"RA_OF_ASC_NODE":98.188,"ARG_OF_PERICENTER":41.7816,"MEAN_ANOMALY":319.121,"EPHEMERIS_TYPE":0,"CLASSIFICATION_TYPE":"U","NORAD_CAT_ID":35571,"ELEMENT_SET_NO":999,"REV_AT_EPOCH":91755,"BSTAR":0.0016985241,"MEAN_MOTION_DOT":0.00017804,"MEAN_MOTION_DDOT":0}]
